start=new Date('2022-02-10T00:00:00.000Z').valueOf();
sats=[{"REF_FRAME":"TEME","OBJECT_ID":"2021-038R","EPOCH":"2022-02-09T13:37:10.025760","INCLINATION":"53.0544","REV_AT_EPOCH":"4272","DECAY_DATE":null,"APOAPSIS":"548.249","MEAN_MOTION":"15.06395867","NORAD_CAT_ID":"48368","SEMIMAJOR_AXIS":"6925.361","RA_OF_ASC_NODE":"196.5365","MEAN_MOTION_DOT":"0.00000916","PERIAPSIS":"546.203","FILE":"3295989","LAUNCH_DATE":"2021-05-04","TLE_LINE2":"2 48368  53.0544 196.5365 0001477  70.2000 289.9148 15.06395867 42721","MEAN_MOTION_DDOT":"0.0000000000000","PERIOD":"95.592","MEAN_ELEMENT_THEORY":"SGP4","EPHEMERIS_TYPE":"0","ELEMENT_SET_NO":"999","MEAN_ANOMALY":"289.9148","SITE":"AFETR","TLE_LINE1":"1 48368U 21038R   22040.56747715  .00000916  00000-0  80391-4 0  9994","TIME_SYSTEM":"UTC","RCS_SIZE":"LARGE","ARG_OF_PERICENTER":"70.2000","COUNTRY_CODE":"US","OBJECT_TYPE":"PAYLOAD","BSTAR":"0.00008039100000","CENTER_NAME":"EARTH","ECCENTRICITY":"0.00014770","CLASSIFICATION_TYPE":"U","OBJECT_NAME":"STARLINK-2623","GP_ID":"195639617"},{"TLE_LINE2":"2 48369  53.0552 196.6298 0001472  69.4109 290.7037 15.06399807 42716","MEAN_MOTION_DDOT":"0.0000000000000","PERIOD":"95.592","MEAN_ELEMENT_THEORY":"SGP4","EPHEMERIS_TYPE":"0","MEAN_MOTION_DOT":"0.00003296","PERIAPSIS":"546.195","FILE":"3295989","LAUNCH_DATE":"2021-05-04","SEMIMAJOR_AXIS":"6925.349","NORAD_CAT_ID":"48369","RA_OF_ASC_NODE":"196.6298","APOAPSIS":"548.234","MEAN_MOTION":"15.06399807","DECAY_DATE":null,"EPOCH":"2022-02-09T13:06:41.552064","INCLINATION":"53.0552","REV_AT_EPOCH":"4271","OBJECT_ID":"2021-038S","REF_FRAME":"TEME","GP_ID":"195640869","ECCENTRICITY":"0.00014720","CLASSIFICATION_TYPE":"U","OBJECT_NAME":"STARLINK-2641","OBJECT_TYPE":"PAYLOAD","BSTAR":"0.00024003000000","CENTER_NAME":"EARTH","ARG_OF_PERICENTER":"69.4109","COUNTRY_CODE":"US","MEAN_ANOMALY":"290.7037","SITE":"AFETR","TLE_LINE1":"1 48369U 21038S   22040.54631426  .00003296  00000-0  24003-3 0  9995","TIME_SYSTEM":"UTC","RCS_SIZE":"LARGE","ELEMENT_SET_NO":"999"},{"SEMIMAJOR_AXIS":"6925.373","NORAD_CAT_ID":"48370","RA_OF_ASC_NODE":"195.7601","APOAPSIS":"548.151","MEAN_MOTION":"15.06392047","EPHEMERIS_TYPE":"0","PERIOD":"95.593","MEAN_ELEMENT_THEORY":"SGP4","MEAN_MOTION_DDOT":"0.0000000000000","TLE_LINE2":"2 48370  53.0548 195.7601 0001319  69.0193 291.0937 15.06392047 43331","LAUNCH_DATE":"2021-05-04","FILE":"3296112","PERIAPSIS":"546.324","MEAN_MOTION_DOT":"0.00000639","REV_AT_EPOCH":"4333","INCLINATION":"53.0548","EPOCH":"2022-02-09T17:48:00.242208","OBJECT_ID":"2021-038T","REF_FRAME":"TEME","DECAY_DATE":null,"CLASSIFICATION_TYPE":"U","OBJECT_NAME":"STARLINK-2621","ECCENTRICITY":"0.00013190","GP_ID":"195645721","RCS_SIZE":"LARGE","TIME_SYSTEM":"UTC","TLE_LINE1":"1 48370U 21038T   22040.74166947  .00000639  00000-0  61778-4 0  9999","SITE":"AFETR","MEAN_ANOMALY":"291.0937","ELEMENT_SET_NO":"999","CENTER_NAME":"EARTH","BSTAR":"0.00006177800000","OBJECT_TYPE":"PAYLOAD","COUNTRY_CODE":"US","ARG_OF_PERICENTER":"69.0193"},{"ELEMENT_SET_NO":"999","RCS_SIZE":"LARGE","TIME_SYSTEM":"UTC","SITE":"AFETR","TLE_LINE1":"1 48371U 21038U   22040.53893738  .00001031  00000-0  88112-4 0  9990","MEAN_ANOMALY":"279.5509","COUNTRY_CODE":"US","ARG_OF_PERICENTER":"80.5691","CENTER_NAME":"EARTH","BSTAR":"0.00008811200000","OBJECT_TYPE":"PAYLOAD","OBJECT_NAME":"STARLINK-2589","CLASSIFICATION_TYPE":"U","ECCENTRICITY":"0.00018680","GP_ID":"195639868","OBJECT_ID":"2021-038U","REF_FRAME":"TEME","REV_AT_EPOCH":"4271","INCLINATION":"53.0546","EPOCH":"2022-02-09T12:56:04.189632","DECAY_DATE":null,"MEAN_MOTION":"15.06399381","APOAPSIS":"548.509","SEMIMAJOR_AXIS":"6925.350","NORAD_CAT_ID":"48371","RA_OF_ASC_NODE":"196.6858","LAUNCH_DATE":"2021-05-04","FILE":"3295989","PERIAPSIS":"545.922","MEAN_MOTION_DOT":"0.00001031","EPHEMERIS_TYPE":"0","MEAN_ELEMENT_THEORY":"SGP4","PERIOD":"95.592","MEAN_MOTION_DDOT":"0.0000000000000","TLE_LINE2":"2 48371  53.0546 196.6858 0001868  80.5691 279.5509 15.06399381 42719"},{"PERIAPSIS":"546.188","MEAN_MOTION_DOT":"-0.00004315","LAUNCH_DATE":"2021-05-04","FILE":"3296291","MEAN_MOTION_DDOT":"0.0000000000000","TLE_LINE2":"2 48372  53.0563 195.8067 0001394  69.8109 290.3030 15.06419562 43333","EPHEMERIS_TYPE":"0","PERIOD":"95.591","MEAN_ELEMENT_THEORY":"SGP4","APOAPSIS":"548.119","MEAN_MOTION":"15.06419562","NORAD_CAT_ID":"48372","SEMIMAJOR_AXIS":"6925.289","RA_OF_ASC_NODE":"195.8067","DECAY_DATE":null,"REF_FRAME":"TEME","OBJECT_ID":"2021-038V","EPOCH":"2022-02-09T17:37:22.116864","REV_AT_EPOCH":"4333","INCLINATION":"53.0563","GP_ID":"195649205","ECCENTRICITY":"0.00013940","OBJECT_NAME":"STARLINK-2572","CLASSIFICATION_TYPE":"U","ARG_OF_PERICENTER":"69.8109","COUNTRY_CODE":"US","BSTAR":"-0.00027082000000","OBJECT_TYPE":"PAYLOAD","CENTER_NAME":"EARTH","ELEMENT_SET_NO":"999","SITE":"AFETR","TLE_LINE1":"1 48372U 21038V   22040.73428376 -.00004315  00000-0 -27082-3 0  9993","MEAN_ANOMALY":"290.3030","RCS_SIZE":"LARGE","TIME_SYSTEM":"UTC"},{"NORAD_CAT_ID":"48373","SEMIMAJOR_AXIS":"6925.368","RA_OF_ASC_NODE":"195.8297","APOAPSIS":"548.239","MEAN_MOTION":"15.06393657","EPHEMERIS_TYPE":"0","MEAN_ELEMENT_THEORY":"SGP4","PERIOD":"95.593","MEAN_MOTION_DDOT":"0.0000000000000","TLE_LINE2":"2 48373  53.0545 195.8297 0001453  71.7687 288.3460 15.06393657 43338","LAUNCH_DATE":"2021-05-04","FILE":"3296291","PERIAPSIS":"546.227","MEAN_MOTION_DOT":"0.00000270","REV_AT_EPOCH":"4333","INCLINATION":"53.0545","EPOCH":"2022-02-09T17:32:04.249536","OBJECT_ID":"2021-038W","REF_FRAME":"TEME","DECAY_DATE":null,"OBJECT_NAME":"STARLINK-2609","CLASSIFICATION_TYPE":"U","ECCENTRICITY":"0.00014530","GP_ID":"195649097","RCS_SIZE":"LARGE","TIME_SYSTEM":"UTC","SITE":"AFETR","TLE_LINE1":"1 48373U 21038W   22040.73060474  .00000270  00000-0  37040-4 0  9995","MEAN_ANOMALY":"288.3460","ELEMENT_SET_NO":"999","CENTER_NAME":"EARTH","BSTAR":"0.00003704000000","OBJECT_TYPE":"PAYLOAD","COUNTRY_CODE":"US","ARG_OF_PERICENTER":"71.7687"},{"TIME_SYSTEM":"UTC","RCS_SIZE":"LARGE","MEAN_ANOMALY":"289.2418","TLE_LINE1":"1 48374U 21038X   22040.59422984  .00000313  00000-0  39952-4 0  9990","SITE":"AFETR","ELEMENT_SET_NO":"999","CENTER_NAME":"EARTH","OBJECT_TYPE":"PAYLOAD","BSTAR":"0.00003995200000","COUNTRY_CODE":"US","ARG_OF_PERICENTER":"70.8751","OBJECT_NAME":"STARLINK-2604","CLASSIFICATION_TYPE":"U","ECCENTRICITY":"0.00016600","GP_ID":"195641120","INCLINATION":"53.0554","REV_AT_EPOCH":"4272","EPOCH":"2022-02-09T14:15:41.458176","REF_FRAME":"TEME","OBJECT_ID":"2021-038X","DECAY_DATE":null,"SEMIMAJOR_AXIS":"6925.375","NORAD_CAT_ID":"48374","RA_OF_ASC_NODE":"196.4303","MEAN_MOTION":"15.06391416","APOAPSIS":"548.389","PERIOD":"95.593","MEAN_ELEMENT_THEORY":"SGP4","EPHEMERIS_TYPE":"0","TLE_LINE2":"2 48374  53.0554 196.4303 0001660  70.8751 289.2418 15.06391416 42722","MEAN_MOTION_DDOT":"0.0000000000000","FILE":"3295989","LAUNCH_DATE":"2021-05-04","MEAN_MOTION_DOT":"0.00000313","PERIAPSIS":"546.090"},{"DECAY_DATE":null,"EPOCH":"2022-02-09T15:45:54.609120","REV_AT_EPOCH":"4332","INCLINATION":"53.0542","REF_FRAME":"TEME","OBJECT_ID":"2021-038Y","MEAN_MOTION_DDOT":"0.0000000000000","TLE_LINE2":"2 48375  53.0542 196.1522 0001461  68.4899 291.6245 15.06396366 43326","EPHEMERIS_TYPE":"0","PERIOD":"95.592","MEAN_ELEMENT_THEORY":"SGP4","PERIAPSIS":"546.213","MEAN_MOTION_DOT":"0.00001666","LAUNCH_DATE":"2021-05-04","FILE":"3296192","NORAD_CAT_ID":"48375","SEMIMAJOR_AXIS":"6925.360","RA_OF_ASC_NODE":"196.1522","MEAN_MOTION":"15.06396366","APOAPSIS":"548.236","BSTAR":"0.00013073000000","OBJECT_TYPE":"PAYLOAD","CENTER_NAME":"EARTH","ARG_OF_PERICENTER":"68.4899","COUNTRY_CODE":"US","SITE":"AFETR","TLE_LINE1":"1 48375U 21038Y   22040.65688205  .00001666  00000-0  13073-3 0  9995","MEAN_ANOMALY":"291.6245","RCS_SIZE":"LARGE","TIME_SYSTEM":"UTC","ELEMENT_SET_NO":"999","GP_ID":"195647442","ECCENTRICITY":"0.00014610","CLASSIFICATION_TYPE":"U","OBJECT_NAME":"STARLINK-2603"},{"COUNTRY_CODE":"US","ARG_OF_PERICENTER":"80.6293","CENTER_NAME":"EARTH","BSTAR":"0.00006765400000","OBJECT_TYPE":"PAYLOAD","ELEMENT_SET_NO":"999","RCS_SIZE":"LARGE","TIME_SYSTEM":"UTC","SITE":"AFETR","TLE_LINE1":"1 48376U 21038Z   22040.58685806  .00000726  00000-0  67654-4 0  9993","MEAN_ANOMALY":"279.4906","GP_ID":"195639618","CLASSIFICATION_TYPE":"U","OBJECT_NAME":"STARLINK-2610","ECCENTRICITY":"0.00018640","DECAY_DATE":null,"OBJECT_ID":"2021-038Z","REF_FRAME":"TEME","REV_AT_EPOCH":"4272","INCLINATION":"53.0545","EPOCH":"2022-02-09T14:05:04.536384","LAUNCH_DATE":"2021-05-04","FILE":"3295989","PERIAPSIS":"545.938","MEAN_MOTION_DOT":"0.00000726","EPHEMERIS_TYPE":"0","MEAN_ELEMENT_THEORY":"SGP4","PERIOD":"95.592","MEAN_MOTION_DDOT":"0.0000000000000","TLE_LINE2":"2 48376  53.0545 196.4732 0001864  80.6293 279.4906 15.06394971 42728","APOAPSIS":"548.520","MEAN_MOTION":"15.06394971","SEMIMAJOR_AXIS":"6925.364","NORAD_CAT_ID":"48376","RA_OF_ASC_NODE":"196.4732"},{"BSTAR":"0.00004591900000","OBJECT_TYPE":"PAYLOAD","CENTER_NAME":"EARTH","ARG_OF_PERICENTER":"78.5258","COUNTRY_CODE":"US","SITE":"AFETR","TLE_LINE1":"1 48377U 21038AA  22040.71585972  .00000402  00000-0  45919-4 0  9993","MEAN_ANOMALY":"281.5909","RCS_SIZE":"LARGE","TIME_SYSTEM":"UTC","ELEMENT_SET_NO":"999","GP_ID":"195647456","ECCENTRICITY":"0.00015860","CLASSIFICATION_TYPE":"U","OBJECT_NAME":"STARLINK-2499","DECAY_DATE":null,"EPOCH":"2022-02-09T17:10:50.279808","REV_AT_EPOCH":"4333","INCLINATION":"53.0553","REF_FRAME":"TEME","OBJECT_ID":"2021-038AA","MEAN_MOTION_DDOT":"0.0000000000000","TLE_LINE2":"2 48377  53.0553 195.8865 0001586  78.5258 281.5909 15.06395066 43337","EPHEMERIS_TYPE":"0","PERIOD":"95.592","MEAN_ELEMENT_THEORY":"SGP4","PERIAPSIS":"546.130","MEAN_MOTION_DOT":"0.00000402","LAUNCH_DATE":"2021-05-04","FILE":"3296193","SEMIMAJOR_AXIS":"6925.364","NORAD_CAT_ID":"48377","RA_OF_ASC_NODE":"195.8865","APOAPSIS":"548.327","MEAN_MOTION":"15.06395066"}];
